[{"OBJECT_NAME":"ONEWEB-0393","OBJECT_ID":"2021-132E","EPOCH":"2026-03-09T21:08:46.449888","MEAN_MOTION":13.17649696,"ECCENTRICITY":0.00018232,"INCLINATION":87.9161,"RA_OF_ASC_NODE":25.5814,"ARG_OF_PERICENTER":73.9897,"MEAN_ANOMALY":286.1436,"EPHEMERIS_TYPE":0,"CLASSIFICATION_TYPE":"U","NORAD_CAT_ID":50473,"ELEMENT_SET_NO":999,"REV_AT_EPOCH":20503,"BSTAR":-0.00030494445,"MEAN_MOTION_DOT":-1.06e-6,"MEAN_MOTION_DDOT":0},{"OBJECT_NAME":"CZ-4C DEB","OBJECT_ID":"2010-059E","EPOCH":"2026-03-09T08:48:23.177952","MEAN_MOTION":13.71352703,"ECCENTRICITY":0.02690884,"INCLINATION":98.6543,"RA_OF_ASC_NODE":275.3464,"ARG_OF_PERICENTER":99.3571,"MEAN_ANOMALY":25.4803,"EPHEMERIS_TYPE":0,"CLASSIFICATION_TYPE":"U","NORAD_CAT_ID":38295,"ELEMENT_SET_NO":999,"REV_AT_EPOCH":65479,"BSTAR":0.00037577364,"MEAN_MOTION_DOT":4.01e-6,"MEAN_MOTION_DDOT":0}]
